NORAD_CAT_ID,OBJECT_NAME,OBJECT_TYPE,EPOCH,MEAN_MOTION,ECCENTRICITY,INCLINATION,RA_OF_ASC_NODE,ARG_OF_PERICENTER,MEAN_ANOMALY,BSTAR,MEAN_MOTION_DOT,MEAN_MOTION_DDOT,TLE_LINE0,TLE_LINE1,TLE_LINE2,SEMIMAJOR_AXIS,PERIOD,APOGEE,PERIGEE,DECAYED
49765.0,STARLINK-3227,PAYLOAD,2022-02-01 14:00:01,15.40498283,0.0002583999999999,53.217,31.6082,18.2421,155.8711,-0.0015602,-0.00064113,0.0,0 STARLINK-3227,1 49765U 21115AT  22032.58335648 -.00064113  00000-0 -15602-2 0  9995,2 49765  53.2170  31.6082 0002584  18.2421 155.8711 15.40498283  3610,6822.775,93.476,446.403,442.877,0.0
49765.0,STARLINK-3227,PAYLOAD,2022-02-01 22:00:00,15.40445917,0.0002349,53.2172,30.036,21.1402,202.5194,0.00013143,5.002e-05,0.0,0 STARLINK-3227,1 49765U 21115AT  22032.91667824  .00005002  00000-0  13143-3 0  9995,2 49765  53.2172  30.0360 0002349  21.1402 202.5194 15.40445917  3638,6822.929,93.479,446.397,443.192,0.0
49765.0,STARLINK-3227,PAYLOAD,2022-02-02 14:00:01,15.4042606,0.0002571,53.2177,26.8965,19.9973,302.7714,0.00028149,0.00011176,0.0,0 STARLINK-3227,1 49765U 21115AT  22033.58334491  .00011176  00000-0  28149-3 0  9991,2 49765  53.2177  26.8965 0002571  19.9973 302.7714 15.40426060 10763,6822.988,93.481,446.607,443.099,0.0
49765.0,STARLINK-3227,PAYLOAD,2022-02-02 22:00:00,15.40427224,0.0002385,53.2181,25.3245,24.1878,348.1416,0.0020457,0.00084566,0.0,0 STARLINK-3227,1 49765U 21115AT  22033.91667824  .00084566  00000-0  20457-2 0  9993,2 49765  53.2181  25.3245 0002385  24.1878 348.1416 15.40427224  3654,6822.984,93.481,446.477,443.222,0.0
49765.0,STARLINK-3227,PAYLOAD,2022-02-03 06:00:00,15.40504284,0.0002642,53.2184,23.7557,26.7539,35.2422,-0.001296,-0.0005341,0.0,0 STARLINK-3227,1 49765U 21115AT  22034.25001157 -.00053410  00000-0 -12960-2 0  9998,2 49765  53.2184  23.7557 0002642  26.7539  35.2422 15.40504284 10867,6822.757,93.476,446.425,442.819,0.0
49765.0,STARLINK-3227,PAYLOAD,2022-02-03 14:00:01,15.40488436,0.0002561,53.2185,22.1847,23.1511,88.4603,-0.00083719,-0.0003471,0.0,0 STARLINK-3227,1 49765U 21115AT  22034.58334491 -.00034710  00000-0 -83719-3 0  9997,2 49765  53.2185  22.1847 0002561  23.1511  88.4603 15.40488436  3643,6822.804,93.477,446.416,442.921,0.0
49765.0,STARLINK-3227,PAYLOAD,2022-02-03 22:00:01,15.40467928,0.0002302,53.2189,20.6127,23.8561,137.4234,0.00022935,9.041e-05,0.0,0 STARLINK-3227,1 49765U 21115AT  22034.91668981  .00009041  00000-0  22935-3 0  9998,2 49765  53.2189  20.6127 0002302  23.8561 137.4234 15.40467928 10967,6822.864000000001,93.478,446.3,443.159,0.0
49765.0,STARLINK-3227,PAYLOAD,2022-02-04 06:00:00,15.40499487,0.0002451,53.2191,19.044,19.2475,191.6262,-0.00018808,-8.141e-05,0.0,0 STARLINK-3227,1 49765U 21115AT  22035.25001157 -.00008141  00000-0 -18808-3 0  9998,2 49765  53.2191  19.0440 0002451  19.2475 191.6262 15.40499487 11013,6822.771,93.476,446.3080000000001,442.964,0.0
49765.0,STARLINK-3227,PAYLOAD,2022-02-04 14:00:01,15.40501785,0.0002403,53.2189,17.4729,17.5026,243.0301,-0.00033963,-0.00014364,0.0,0 STARLINK-3227,1 49765U 21115AT  22035.58335648 -.00014364  00000-0 -33963-3 0  9992,2 49765  53.2189  17.4729 0002403  17.5026 243.0301 15.40501785  3643,6822.764,93.476,446.269,442.99,0.0
49765.0,STARLINK-3227,PAYLOAD,2022-02-04 22:00:00,15.405202,0.0002242,53.2193,15.9013,23.2684,286.834,-0.0019916,-0.000816,0.0,0 STARLINK-3227,1 49765U 21115AT  22035.91667824 -.00081600  00000-0 -19916-2 0  9991,2 49765  53.2193  15.9013 0002242  23.2684 286.8340 15.40520200  3610,6822.71,93.475,446.105,443.045,0.0
49765.0,STARLINK-3227,PAYLOAD,2022-02-05 06:00:00,15.40424011,0.000248,53.219,14.3329,22.6251,337.1195,-0.00059253,-0.00024664,0.0,0 STARLINK-3227,1 49765U 21115AT  22036.25001157 -.00024664  00000-0 -59253-3 0  9996,2 49765  53.2190  14.3329 0002480  22.6251 337.1195 15.40424011 11178,6822.994000000002,93.481,446.551,443.167,0.0
49765.0,STARLINK-3227,PAYLOAD,2022-02-05 14:00:01,15.40424978,0.0002383,53.2187,12.7617,20.4409,28.8279,0.00093427,0.00038164,0.0,0 STARLINK-3227,1 49765U 21115AT  22036.58334491  .00038164  00000-0  93427-3 0  9991,2 49765  53.2187  12.7617 0002383  20.4409  28.8279 15.40424978  3618,6822.991,93.481,446.482,443.23,0.0
49765.0,STARLINK-3227,PAYLOAD,2022-02-05 22:00:01,15.40470672,0.0002197,53.2188,11.1903,26.0209,72.8688,0.0007645999999999,0.00031178,0.0,0 STARLINK-3227,1 49765U 21115AT  22036.91668981  .00031178  00000-0  76460-3 0  9998,2 49765  53.2188  11.1903 0002197  26.0209  72.8688 15.40470672 11279,6822.856,93.478,446.22,443.222,0.0
49765.0,STARLINK-3227,PAYLOAD,2022-02-06 06:00:00,15.40475371,0.0002439,53.2186,9.6221,23.5306,124.8851,-0.0023708,-0.00096729,0.0,0 STARLINK-3227,1 49765U 21115AT  22037.25001157 -.00096729  00000-0 -23708-2 0  9993,2 49765  53.2186   9.6221 0002439  23.5306 124.8851 15.40475371 11328,6822.842,93.478,446.371,443.043,0.0
49765.0,STARLINK-3227,PAYLOAD,2022-02-06 14:00:01,15.40413019,0.0002305,53.2182,8.0506,24.5034,173.54,-0.0014728,-0.00060402,0.0,0 STARLINK-3227,1 49765U 21115AT  22037.58335648 -.00060402  00000-0 -14728-2 0  9995,2 49765  53.2182   8.0506 0002305  24.5034 173.5400 15.40413019  3631,6823.026,93.481,446.464,443.319,0.0
49765.0,STARLINK-3227,PAYLOAD,2022-02-06 20:00:01,15.40346548,0.0002144,53.2182,6.872000000000001,27.4797,117.6264,0.0020429,0.00084219,0.0,0 STARLINK-3227,1 49765U 21115AT  22037.83334491  .00084219  00000-0  20429-2 0  9993,2 49765  53.2182   6.8720 0002144  27.4797 117.6264 15.40346548 11418,6823.223000000001,93.485,446.551,443.625,0.0
49765.0,STARLINK-3227,PAYLOAD,2022-02-06 22:00:00,15.40367679,0.0002139,53.2184,6.4796,28.5623,218.9062,0.0017125,0.00070454,0.0,0 STARLINK-3227,1 49765U 21115AT  22037.91667824  .00070454  00000-0  17125-2 0  9996,2 49765  53.2184   6.4796 0002139  28.5623 218.9062 15.40367679  3637,6823.16,93.484,446.485,443.566,0.0
49765.0,STARLINK-3227,PAYLOAD,2022-02-07 14:00:01,15.4046283,0.0002232,53.2182,3.3398,26.0392,320.4687,0.00028039,0.00011144,0.0,0 STARLINK-3227,1 49765U 21115AT  22038.58334491  .00011144  00000-0  28039-3 0  9999,2 49765  53.2182   3.3398 0002232  26.0392 320.4687 15.40462830  3647,6822.879,93.478,446.267,443.221,0.0
49765.0,STARLINK-3227,PAYLOAD,2022-02-07 16:00:00,15.40457609,0.0002125,53.2184,2.9468,26.5657,62.3424,0.00076184,0.0003105,0.0,0 STARLINK-3227,1 49765U 21115AT  22038.66667824  .00031050  00000-0  76184-3 0  9999,2 49765  53.2184   2.9468 0002125  26.5657  62.3424 15.40457609 11549,6822.895,93.479,446.21,443.31,0.0
49765.0,STARLINK-3227,PAYLOAD,2022-02-07 22:00:00,15.40485422,0.0002059,53.2185,1.7686,27.8612,8.2396,0.00010753,4.024e-05,0.0,0 STARLINK-3227,1 49765U 21115AT  22038.91667824  .00004024  00000-0  10753-3 0  9998,2 49765  53.2185   1.7686 0002059  27.8612   8.2396 15.40485422  3654,6822.813,93.477,446.082,443.273,0.0
49765.0,STARLINK-3227,PAYLOAD,2022-02-08 14:00:01,15.40493307,0.0002209,53.2188,358.6282,26.3357,108.988,-0.0013137,-0.00054106,0.0,0 STARLINK-3227,1 49765U 21115AT  22039.58334491 -.00054106  00000-0 -13137-2 0  9999,2 49765  53.2188 358.6282 0002209  26.3357 108.9880 15.40493307 11689,6822.7890000000025,93.477,446.162,443.147,0.0
49765.0,STARLINK-3227,PAYLOAD,2022-02-08 22:00:01,15.40464411,0.0002129,53.2191,357.0572,30.8523,154.1354,0.00032852,0.00013131,0.0,0 STARLINK-3227,1 49765U 21115AT  22039.91668981  .00013131  00000-0  32852-3 0  9997,2 49765  53.2191 357.0572 0002129  30.8523 154.1354 15.40464411  3611,6822.875,93.478,446.192,443.287,0.0
49765.0,STARLINK-3227,PAYLOAD,2022-02-09 06:00:00,15.40451443,0.0002327,53.2192,355.4886,25.3413,209.1868,0.00018674,7.281e-05,0.0,0 STARLINK-3227,1 49765U 21115AT  22040.25001157  .00007281  00000-0  18674-3 0  9997,2 49765  53.2192 355.4886 0002327  25.3413 209.1868 15.40451443 11788,6822.913000000001,93.479,446.366,443.19,0.0
49765.0,STARLINK-3227,PAYLOAD,2022-02-09 14:19:44,15.40475262,0.0002304,53.219,353.8507,29.9146,330.1991,0.00057769,0.00023437,0.0,0 STARLINK-3227,1 49765U 21115AT  22040.59704093  .00023437  00000-0  57769-3 0  9992,2 49765  53.2190 353.8507 0002304  29.9146 330.1991 15.40475262 10737,6822.843000000003,93.478,446.28,443.136,0.0
49765.0,STARLINK-3227,PAYLOAD,2022-02-10 13:41:07,15.40480124,0.0002302,53.2184,349.266,30.9611,329.153,0.00016904,6.558e-05,0.0,0 STARLINK-3227,1 49765U 21115AT  22041.57022334  .00006558  00000-0  16904-3 0  9993,2 49765  53.2184 349.2660 0002302  30.9611 329.1530 15.40480124 10882,6822.828,93.477,446.264,443.12300000000016,0.0
49765.0,STARLINK-3227,PAYLOAD,2022-02-10 14:00:01,15.4046768,0.0002174,53.2191,349.2049,27.7322,45.2483,-0.00087244,-0.00036121,0.0,0 STARLINK-3227,1 49765U 21115AT  22041.58335648 -.00036121  00000-0 -87244-3 0  9995,2 49765  53.2191 349.2049 0002174  27.7322  45.2483 15.40467680 11999,6822.865,93.478,446.213,443.247,0.0
49765.0,STARLINK-3227,PAYLOAD,2022-02-10 21:28:15,15.40474549,0.000223,53.2196,347.7364,31.5573,328.5566,9.9656e-05,3.698e-05,0.0,0 STARLINK-3227,1 49765U 21115AT  22041.89461933  .00003698  00000-0  99656-4 0  9998,2 49765  53.2196 347.7364 0002230  31.5573 328.5566 15.40474549 10935,6822.845,93.478,446.231,443.18800000000016,0.0
49765.0,STARLINK-3227,PAYLOAD,2022-02-10 22:00:00,15.40461496,0.000217,53.2191,347.6344,32.6174,89.8858,0.0011343,0.00046528,0.0,0 STARLINK-3227,1 49765U 21115AT  22041.91667824  .00046528  00000-0  11343-2 0  9992,2 49765  53.2191 347.6344 0002170  32.6174  89.8858 15.40461496 12041,6822.8830000000025,93.478,446.229,443.268,0.0
49765.0,STARLINK-3227,PAYLOAD,2022-02-11 13:02:27,15.40526833,0.0002245,53.219,344.6824,27.7238,332.3887,0.00038392,0.00015451,0.0,0 STARLINK-3227,1 49765U 21115AT  22042.54337904  .00015451  00000-0  38392-3 0  9990,2 49765  53.2190 344.6824 0002245  27.7238 332.3887 15.40526833 12145,6822.69,93.475,446.087,443.024,0.0
